NORAD_CAT_ID,OBJECT_NAME,OBJECT_TYPE,EPOCH,MEAN_MOTION,ECCENTRICITY,INCLINATION,RA_OF_ASC_NODE,ARG_OF_PERICENTER,MEAN_ANOMALY,BSTAR,MEAN_MOTION_DOT,MEAN_MOTION_DDOT,TLE_LINE0,TLE_LINE1,TLE_LINE2,SEMIMAJOR_AXIS,PERIOD,APOGEE,PERIGEE,DECAYED
53711.0,STARLINK-4627,PAYLOAD,2024-05-03 22:45:26,15.08814297,0.0001511,53.2145,37.9584,87.3467,272.7698,-0.00035077,-5.862e-05,0.0,0 STARLINK-4627,1 53711U 22107M   24124.94822496 -.00005862  00000-0 -35077-3 0  9994,2 53711  53.2145  37.9584 0001511  87.3467 272.7698 15.08814297 92612,6917.959,95.439,540.869,538.779,0.0
53711.0,STARLINK-4627,PAYLOAD,2024-05-04 03:31:36,15.08816399,0.0001425,53.2171,37.0644,80.0759,280.0394,-0.00027565,-4.669e-05,0.0,0 STARLINK-4627,1 53711U 22107M   24125.14694701 -.00004669  00000-0 -27565-3 0  9990,2 53711  53.2171  37.0644 0001425  80.0759 280.0394 15.08816399 92202,6917.953,95.439,540.803,538.832,0.0
53711.0,STARLINK-4627,PAYLOAD,2024-05-05 03:22:23,15.08844607,0.0001429,53.2175,32.6046,74.5558,285.5592,0.0012963,0.00020405,0.0,0 STARLINK-4627,1 53711U 22107M   24126.14055518  .00020405  00000-0  12963-2 0  9997,2 53711  53.2175  32.6046 0001429  74.5558 285.5592 15.08844607 92351,6917.866,95.437,540.72,538.743,0.0
53711.0,STARLINK-4627,PAYLOAD,2024-05-05 22:27:00,15.08877715,0.0001428,53.2181,29.0367,74.7836,285.3314,0.001396,0.00022022,0.0,0 STARLINK-4627,1 53711U 22107M   24126.93542434  .00022022  00000-0  13960-2 0  9997,2 53711  53.2181  29.0367 0001428  74.7836 285.3314 15.08877715 92912,6917.765,95.435,540.618,538.642,0.0
53711.0,STARLINK-4627,PAYLOAD,2024-05-06 03:13:09,15.08890601,0.0001394,53.2181,28.1444,75.0777,285.037,0.0016498,0.00026103,0.0,0 STARLINK-4627,1 53711U 22107M   24127.13413847  .00026103  00000-0  16498-2 0  9998,2 53711  53.2181  28.1444 0001394  75.0777 285.0370 15.08890601 92949,6917.726,95.434,540.555,538.626,0.0
53711.0,STARLINK-4627,PAYLOAD,2024-05-06 20:42:23,15.08874806,0.0001608,53.2167,24.8698,102.7487,257.3685,0.00060607,9.38e-05,0.0,0 STARLINK-4627,1 53711U 22107M   24127.86276812  .00009380  00000-0  60607-3 0  9997,2 53711  53.2167  24.8698 0001608 102.7487 257.3685 15.08874806 92615,6917.774,95.435,540.751,538.527,0.0
53711.0,STARLINK-4627,PAYLOAD,2024-05-06 22:17:46,15.08869013,0.0001553,53.2182,24.5715,109.3601,250.7559,0.00011448,1.536e-05,0.0,0 STARLINK-4627,1 53711U 22107M   24127.92900667  .00001536  00000-0  11448-3 0  9990,2 53711  53.2182  24.5715 0001553 109.3601 250.7559 15.08869013 93060,6917.792,95.436,540.731,538.582,0.0
53711.0,STARLINK-4627,PAYLOAD,2024-05-07 03:03:55,15.08865299,0.0001372,53.2189,23.6847,87.8392,272.2757,0.00022772,3.341e-05,0.0,0 STARLINK-4627,1 53711U 22107M   24128.12772687  .00003341  00000-0  22772-3 0  9990,2 53711  53.2189  23.6847 0001372  87.8392 272.2757 15.08865299 92654,6917.803,95.436,540.617,538.719,0.0
53711.0,STARLINK-4627,PAYLOAD,2024-05-07 20:33:10,15.08842696,0.000142,53.2164,20.4094,99.1648,260.9505,-0.0003481,-5.824e-05,0.0,0 STARLINK-4627,1 53711U 22107M   24128.85637117 -.00005824  00000-0 -34810-3 0  9994,2 53711  53.2164  20.4094 0001420  99.1648 260.9505 15.08842696 92763,6917.872,95.437,540.719,538.755,0.0
53711.0,STARLINK-4627,PAYLOAD,2024-05-07 22:08:33,15.08838486,0.0001312,53.2169,20.1123,95.6417,264.4724,-0.00024829,-4.237e-05,0.0,0 STARLINK-4627,1 53711U 22107M   24128.92261320 -.00004237  00000-0 -24829-3 0  9997,2 53711  53.2169  20.1123 0001312  95.6417 264.4724 15.08838486 93218,6917.885,95.438,540.658,538.842,0.0
53711.0,STARLINK-4627,PAYLOAD,2024-05-08 09:16:15,15.08841727,0.0001271,53.2167,18.0351,83.7871,276.3266,-9.747e-05,-1.839e-05,0.0,0 STARLINK-4627,1 53711U 22107M   24129.38629551 -.00001839  00000-0 -97470-4 0  9990,2 53711  53.2167  18.0351 0001271  83.7871 276.3266 15.08841727 93283,6917.875,95.437,540.619,538.861,0.0
53711.0,STARLINK-4627,PAYLOAD,2024-05-08 21:59:21,15.08837959,0.0001252,53.2173,15.6581,87.9068,272.2068,8.3128e-05,1.035e-05,0.0,0 STARLINK-4627,1 53711U 22107M   24129.91621979  .00001035  00000-0  83128-4 0  9996,2 53711  53.2173  15.6581 0001252  87.9068 272.2068 15.08837959 93367,6917.887,95.438,540.618,538.886,0.0
53711.0,STARLINK-4627,PAYLOAD,2024-05-08 23:34:44,15.08840061,0.0001239,53.2174,15.361,90.2361,269.8773,0.00011821,1.594e-05,0.0,0 STARLINK-4627,1 53711U 22107M   24129.98245891  .00001594  00000-0  11821-3 0  9998,2 53711  53.2174  15.3610 0001239  90.2361 269.8773 15.08840061 92931,6917.88,95.438,540.602,538.888,0.0
53711.0,STARLINK-4627,PAYLOAD,2024-05-09 09:07:03,15.0885102,0.0001342,53.2183,13.577,94.8367,265.2778,0.00041148,6.269e-05,0.0,0 STARLINK-4627,1 53711U 22107M   24130.37989590  .00006269  00000-0  41148-3 0  9993,2 53711  53.2183  13.5770 0001342  94.8367 265.2778 15.08851020 93437,6917.847,95.437,540.64,538.783,0.0
53711.0,STARLINK-4627,PAYLOAD,2024-05-09 21:50:08,15.08836073,0.0001379,53.2174,11.1983,96.3401,263.7748,0.00017578,2.51e-05,0.0,0 STARLINK-4627,1 53711U 22107M   24130.90982496  .00002510  00000-0  17578-3 0  9995,2 53711  53.2174  11.1983 0001379  96.3401 263.7748 15.08836073 93513,6917.892,95.438,540.711,538.803,0.0
53711.0,STARLINK-4627,PAYLOAD,2024-05-10 02:36:17,15.08848752,0.0001377,53.217,10.3041,95.9599,264.155,0.00051556,7.929e-05,0.0,0 STARLINK-4627,1 53711U 22107M   24131.10854068  .00007929  00000-0  51556-3 0  9994,2 53711  53.2170  10.3041 0001377  95.9599 264.1550 15.08848752 93104,6917.854,95.437,540.671,538.766,0.0
53711.0,STARLINK-4627,PAYLOAD,2024-05-10 08:57:50,15.0886651,0.0001359,53.2172,9.1142,81.3489,278.7657,0.0010656,0.00016724,0.0,0 STARLINK-4627,1 53711U 22107M   24131.37349680  .00016724  00000-0  10656-2 0  9990,2 53711  53.2172   9.1142 0001359  81.3489 278.7657 15.08866510 93146,6917.799,95.436,540.604,538.724,0.0
53711.0,STARLINK-4627,PAYLOAD,2024-05-10 20:05:32,15.08855079,0.0001167,53.2168,7.0347,93.2198,266.8927,0.00129,0.0002031,0.0,0 STARLINK-4627,1 53711U 22107M   24131.83718086  .00020310  00000-0  12900-2 0  9991,2 53711  53.2168   7.0347 0001167  93.2198 266.8927 15.08855079 93215,6917.834,95.437,540.507,538.892,0.0
53711.0,STARLINK-4627,PAYLOAD,2024-05-10 21:40:55,15.08860701,0.0001316,53.2167,6.7371,92.0387,268.0756,0.0015357,0.00024251,0.0,0 STARLINK-4627,1 53711U 22107M   24131.90342058  .00024251  00000-0  15357-2 0  9998,2 53711  53.2167   6.7371 0001316  92.0387 268.0756 15.08860701 93661,6917.817,95.436,540.592,538.772,0.0
53711.0,STARLINK-4627,PAYLOAD,2024-05-11 08:48:35,15.0895942,9.93e-05,53.2169,4.6553,95.8704,264.2401,0.0059079,0.00095321,0.0,0 STARLINK-4627,1 53711U 22107M   24132.36707705  .00095321  00000-0  59079-2 0  9998,2 53711  53.2169   4.6553 0000993  95.8704 264.2401 15.08959420 93297,6917.515,95.43,540.067,538.693,0.0
53711.0,STARLINK-4627,PAYLOAD,2024-05-11 21:31:40,15.08732807,0.0001213,53.217,2.2746,80.0161,280.0968,0.0026286,0.00041671,0.0,0 STARLINK-4627,1 53711U 22107M   24132.89699454  .00041671  00000-0  26286-2 0  9990,2 53711  53.2170   2.2746 0001213  80.0161 280.0968 15.08732807 93377,6918.208,95.444,540.912,539.234,0.0
53711.0,STARLINK-4627,PAYLOAD,2024-05-12 00:42:27,15.08714611,8.2e-05,53.2168,1.6804,89.5842,270.5244,0.0030585,0.00048556,0.0,0 STARLINK-4627,1 53711U 22107M   24133.02948651  .00048556  00000-0  30585-2 0  9998,2 53711  53.2168   1.6804 0000820  89.5842 270.5244 15.08714611 93391,6918.264,95.445,540.696,539.561,0.0
53711.0,STARLINK-4627,PAYLOAD,2024-05-12 08:39:25,15.08724985,0.0001424,53.2176,0.1947,103.8446,256.2704,0.002313,0.00036599,0.0,0 STARLINK-4627,1 53711U 22107M   24133.36071551  .00036599  00000-0  23130-2 0  9993,2 53711  53.2176   0.1947 0001424 103.8446 256.2704 15.08724985 93446,6918.232,95.445,541.082,539.112,0.0
53711.0,STARLINK-4627,PAYLOAD,2024-05-12 15:00:58,15.08747995,0.0002041,53.2163,359.0077,256.6732,103.4032,0.0020678,0.00032692,0.0,0 STARLINK-4627,1 53711U 22107M   24133.62567907  .00032692  00000-0  20678-2 0  9991,2 53711  53.2163 359.0077 0002041 256.6732 103.4032 15.08747995 93929,6918.162,95.443,541.439,538.615,0.0
53711.0,STARLINK-4627,PAYLOAD,2024-05-12 21:22:32,15.088147,0.000105,53.2168,357.8145,109.48,250.6305,0.0024565,0.00038997,0.0,0 STARLINK-4627,1 53711U 22107M   24133.89064955  .00038997  00000-0  24565-2 0  9998,2 53711  53.2168 357.8145 0001050 109.4800 250.6305 15.08814700 93529,6917.958,95.439,540.549,539.096,0.0
53711.0,STARLINK-4627,PAYLOAD,2024-05-13 08:30:14,15.08835336,0.000102,53.2168,355.7348,92.3661,267.7448,0.0022742,0.00036087,0.0,0 STARLINK-4627,1 53711U 22107M   24134.35433521  .00036087  00000-0  22742-2 0  9992,2 53711  53.2168 355.7348 0001020  92.3661 267.7448 15.08835336 93595,6917.895,95.438,540.465,539.054,0.0
53711.0,STARLINK-4627,PAYLOAD,2024-05-13 14:51:46,15.08851281,9.34e-05,53.2163,354.5446,99.8975,260.2123,0.002017,0.00031968,0.0,0 STARLINK-4627,1 53711U 22107M   24134.61929373  .00031968  00000-0  20170-2 0  9992,2 53711  53.2163 354.5446 0000934  99.8975 260.2123 15.08851281 94078,6917.846,95.437,540.357,539.065,0.0
53711.0,STARLINK-4627,PAYLOAD,2024-05-13 21:13:19,15.08863626,9.24e-05,53.2161,353.3538,112.2774,247.8316,0.0016893,0.00026717,0.0,0 STARLINK-4627,1 53711U 22107M   24134.88424981  .00026717  00000-0  16893-2 0  9999,2 53711  53.2161 353.3538 0000924 112.2774 247.8316 15.08863626 94117,6917.808,95.436,540.312,539.034,0.0
53711.0,STARLINK-4627,PAYLOAD,2024-05-15 06:36:21,15.08914052,0.0001392,53.2179,347.1092,281.9401,78.1435,0.0013212,0.00020844,0.0,0 STARLINK-4627,1 53711U 22107M   24136.27524697  .00020844  00000-0  13212-2 0  9996,2 53711  53.2179 347.1092 0001392 281.9401  78.1435 15.08914052 93883,6917.654,95.433,540.482,538.556,0.0
53711.0,STARLINK-4627,PAYLOAD,2024-05-15 20:54:50,15.08876815,5.4e-05,53.2182,344.4337,52.285,307.8191,0.00084053,0.00013128,0.0,0 STARLINK-4627,1 53711U 22107M   24136.87141288  .00013128  00000-0  84053-3 0  9992,2 53711  53.2182 344.4337 0000540  52.2850 307.8191 15.08876815 93975,6917.768,95.435,540.006,539.259,0.0
